UNKNOWN                 
1 87164U          25315.55814493  .00008016  00000+0  16555-2 0  9999
2 87164  65.2039  58.2351 0096818  69.6885 291.4586 14.57967224631227
UNKNOWN                 
1 87204U          25315.06789377  .00003388  00000+0  13373-2 0  9994
2 87204  98.5372 176.5264 0046795  56.8502 303.7157 14.29093447620912
UNKNOWN                 
1 87211U          25315.76916074  .00007011  00000+0  19417-2 0  9997
2 87211  99.0868 313.3752 0052533 251.4575 290.9079 14.46143017703290
UNKNOWN                 
1 87214U          25314.94375227  .00002085  00000+0  18811-2 0  9991
2 87214 100.3302 310.4932 0075267 334.3771  25.3658 13.83996397595848
UNKNOWN                 
1 87237U          25315.11366961  .00000560  00000+0  45577-3 0  9997
2 87237  99.2635  10.6614 0103205  10.2212  20.4396 13.91711376607365
UNKNOWN                 
1 87239U          25316.41214644  .00036455  00000+0  91368-2 0  9993
2 87239  82.8725 108.6071 0019839 140.1415 220.1245 14.51065593623479
UNKNOWN                 
1 87245U          25316.47501579  .00022462  00000+0  45522-2 0  9996
2 87245  65.6405 128.7358 0435475 136.3142 258.4660 14.15230151609926
UNKNOWN                 
1 87271U          25316.57917866  .00011679  00000+0  21837-2 0  9997
2 87271  65.7562 317.3307 0420437  89.5985 275.3254 14.21079941608084
UNKNOWN                 
1 87280U          25313.74966117  .00000628  00000+0  10847-2 0  9997
2 87280  64.6158 316.9661 0131551 266.9194  91.6785 13.48511807529406
UNKNOWN                 
1 87293U          25316.12380849  .00016974  00000+0  34053-2 0  9994
2 87293  65.8985 226.5757 0425377  16.2858 345.1418 14.17409442609652
UNKNOWN                 
1 87300U          25315.40493570  .00002845  00000+0  19869-2 0  9999
2 87300 100.0845 294.7286 0030257  14.6882 345.5150 13.99272348608737
UNKNOWN                 
1 87304U          25315.92748525  .00002649  00000+0  39532-3 0  9995
2 87304  74.0210  21.2638 0018644 353.6679   6.4256 14.75245741641938
