CCSDS_OMM_VERS = 2.0
CREATION_DATE  = 
ORIGINATOR     = 

OBJECT_NAME    = UNKNOWN
OBJECT_ID      = 
CENTER_NAME    = EARTH
REF_FRAME      = TEME
TIME_SYSTEM    = UTC
MEAN_ELEMENT_THEORY = SGP/SGP4

EPOCH          = 2025-11-11T13:23:43.721952
MEAN_MOTION    = 14.57967224
ECCENTRICITY   = .0096818
INCLINATION    = 65.2039
RA_OF_ASC_NODE = 58.2351
ARG_OF_PERICENTER = 69.6885
MEAN_ANOMALY   = 291.4586

EPHEMERIS_TYPE = 0
CLASSIFICATION_TYPE = U
NORAD_CAT_ID   = 87164
ELEMENT_SET_NO = 999
REV_AT_EPOCH   = 63122
BSTAR          = .16555E-2
MEAN_MOTION_DOT = .8016E-4
MEAN_MOTION_DDOT = 0

CCSDS_OMM_VERS = 2.0
CREATION_DATE  = 
ORIGINATOR     = 

OBJECT_NAME    = UNKNOWN
OBJECT_ID      = 
CENTER_NAME    = EARTH
REF_FRAME      = TEME
TIME_SYSTEM    = UTC
MEAN_ELEMENT_THEORY = SGP/SGP4

EPOCH          = 2025-11-11T01:37:46.021728
MEAN_MOTION    = 14.29093447
ECCENTRICITY   = .0046795
INCLINATION    = 98.5372
RA_OF_ASC_NODE = 176.5264
ARG_OF_PERICENTER = 56.8502
MEAN_ANOMALY   = 303.7157

EPHEMERIS_TYPE = 0
CLASSIFICATION_TYPE = U
NORAD_CAT_ID   = 87204
ELEMENT_SET_NO = 999
REV_AT_EPOCH   = 62091
BSTAR          = .13373E-2
MEAN_MOTION_DOT = .3388E-4
MEAN_MOTION_DDOT = 0

CCSDS_OMM_VERS = 2.0
CREATION_DATE  = 
ORIGINATOR     = 

OBJECT_NAME    = UNKNOWN
OBJECT_ID      = 
CENTER_NAME    = EARTH
REF_FRAME      = TEME
TIME_SYSTEM    = UTC
MEAN_ELEMENT_THEORY = SGP/SGP4

EPOCH          = 2025-11-11T18:27:35.487936
MEAN_MOTION    = 14.46143017
ECCENTRICITY   = .0052533
INCLINATION    = 99.0868
RA_OF_ASC_NODE = 313.3752
ARG_OF_PERICENTER = 251.4575
MEAN_ANOMALY   = 290.9079

EPHEMERIS_TYPE = 0
CLASSIFICATION_TYPE = U
NORAD_CAT_ID   = 87211
ELEMENT_SET_NO = 999
REV_AT_EPOCH   = 70329
BSTAR          = .19417E-2
MEAN_MOTION_DOT = .7011E-4
MEAN_MOTION_DDOT = 0

CCSDS_OMM_VERS = 2.0
CREATION_DATE  = 
ORIGINATOR     = 

OBJECT_NAME    = UNKNOWN
OBJECT_ID      = 
CENTER_NAME    = EARTH
REF_FRAME      = TEME
TIME_SYSTEM    = UTC
MEAN_ELEMENT_THEORY = SGP/SGP4

EPOCH          = 2025-11-10T22:39:00.196128
MEAN_MOTION    = 13.83996397
ECCENTRICITY   = .0075267
INCLINATION    = 100.3302
RA_OF_ASC_NODE = 310.4932
ARG_OF_PERICENTER = 334.3771
MEAN_ANOMALY   = 25.3658

EPHEMERIS_TYPE = 0
CLASSIFICATION_TYPE = U
NORAD_CAT_ID   = 87214
ELEMENT_SET_NO = 999
REV_AT_EPOCH   = 59584
BSTAR          = .18811E-2
MEAN_MOTION_DOT = .2085E-4
MEAN_MOTION_DDOT = 0

CCSDS_OMM_VERS = 2.0
CREATION_DATE  = 
ORIGINATOR     = 

OBJECT_NAME    = UNKNOWN
OBJECT_ID      = 
CENTER_NAME    = EARTH
REF_FRAME      = TEME
TIME_SYSTEM    = UTC
MEAN_ELEMENT_THEORY = SGP/SGP4

EPOCH          = 2025-11-11T02:43:41.054304
MEAN_MOTION    = 13.91711376
ECCENTRICITY   = .0103205
INCLINATION    = 99.2635
RA_OF_ASC_NODE = 10.6614
ARG_OF_PERICENTER = 10.2212
MEAN_ANOMALY   = 20.4396

EPHEMERIS_TYPE = 0
CLASSIFICATION_TYPE = U
NORAD_CAT_ID   = 87237
ELEMENT_SET_NO = 999
REV_AT_EPOCH   = 60736
BSTAR          = .45577E-3
MEAN_MOTION_DOT = .56E-5
MEAN_MOTION_DDOT = 0

CCSDS_OMM_VERS = 2.0
CREATION_DATE  = 
ORIGINATOR     = 

OBJECT_NAME    = UNKNOWN
OBJECT_ID      = 
CENTER_NAME    = EARTH
REF_FRAME      = TEME
TIME_SYSTEM    = UTC
MEAN_ELEMENT_THEORY = SGP/SGP4

EPOCH          = 2025-11-12T09:53:29.452416
MEAN_MOTION    = 14.51065593
ECCENTRICITY   = .0019839
INCLINATION    = 82.8725
RA_OF_ASC_NODE = 108.6071
ARG_OF_PERICENTER = 140.1415
MEAN_ANOMALY   = 220.1245

EPHEMERIS_TYPE = 0
CLASSIFICATION_TYPE = U
NORAD_CAT_ID   = 87239
ELEMENT_SET_NO = 999
REV_AT_EPOCH   = 62347
BSTAR          = .91368E-2
MEAN_MOTION_DOT = .36455E-3
MEAN_MOTION_DDOT = 0

CCSDS_OMM_VERS = 2.0
CREATION_DATE  = 
ORIGINATOR     = 

OBJECT_NAME    = UNKNOWN
OBJECT_ID      = 
CENTER_NAME    = EARTH
REF_FRAME      = TEME
TIME_SYSTEM    = UTC
MEAN_ELEMENT_THEORY = SGP/SGP4

EPOCH          = 2025-11-12T11:24:01.364256
MEAN_MOTION    = 14.15230151
ECCENTRICITY   = .0435475
INCLINATION    = 65.6405
RA_OF_ASC_NODE = 128.7358
ARG_OF_PERICENTER = 136.3142
MEAN_ANOMALY   = 258.4660

EPHEMERIS_TYPE = 0
CLASSIFICATION_TYPE = U
NORAD_CAT_ID   = 87245
ELEMENT_SET_NO = 999
REV_AT_EPOCH   = 60992
BSTAR          = .45522E-2
MEAN_MOTION_DOT = .22462E-3
MEAN_MOTION_DDOT = 0

CCSDS_OMM_VERS = 2.0
CREATION_DATE  = 
ORIGINATOR     = 

OBJECT_NAME    = UNKNOWN
OBJECT_ID      = 
CENTER_NAME    = EARTH
REF_FRAME      = TEME
TIME_SYSTEM    = UTC
MEAN_ELEMENT_THEORY = SGP/SGP4

EPOCH          = 2025-11-12T13:54:01.036224
MEAN_MOTION    = 14.21079941
ECCENTRICITY   = .0420437
INCLINATION    = 65.7562
RA_OF_ASC_NODE = 317.3307
ARG_OF_PERICENTER = 89.5985
MEAN_ANOMALY   = 275.3254

EPHEMERIS_TYPE = 0
CLASSIFICATION_TYPE = U
NORAD_CAT_ID   = 87271
ELEMENT_SET_NO = 999
REV_AT_EPOCH   = 60808
BSTAR          = .21837E-2
MEAN_MOTION_DOT = .11679E-3
MEAN_MOTION_DDOT = 0

CCSDS_OMM_VERS = 2.0
CREATION_DATE  = 
ORIGINATOR     = 

OBJECT_NAME    = UNKNOWN
OBJECT_ID      = 
CENTER_NAME    = EARTH
REF_FRAME      = TEME
TIME_SYSTEM    = UTC
MEAN_ELEMENT_THEORY = SGP/SGP4

EPOCH          = 2025-11-09T17:59:30.725088
MEAN_MOTION    = 13.48511807
ECCENTRICITY   = .0131551
INCLINATION    = 64.6158
RA_OF_ASC_NODE = 316.9661
ARG_OF_PERICENTER = 266.9194
MEAN_ANOMALY   = 91.6785

EPHEMERIS_TYPE = 0
CLASSIFICATION_TYPE = U
NORAD_CAT_ID   = 87280
ELEMENT_SET_NO = 999
REV_AT_EPOCH   = 52940
BSTAR          = .10847E-2
MEAN_MOTION_DOT = .628E-5
MEAN_MOTION_DDOT = 0

CCSDS_OMM_VERS = 2.0
CREATION_DATE  = 
ORIGINATOR     = 

OBJECT_NAME    = UNKNOWN
OBJECT_ID      = 
CENTER_NAME    = EARTH
REF_FRAME      = TEME
TIME_SYSTEM    = UTC
MEAN_ELEMENT_THEORY = SGP/SGP4

EPOCH          = 2025-11-12T02:58:17.053536
MEAN_MOTION    = 14.17409442
ECCENTRICITY   = .0425377
INCLINATION    = 65.8985
RA_OF_ASC_NODE = 226.5757
ARG_OF_PERICENTER = 16.2858
MEAN_ANOMALY   = 345.1418

EPHEMERIS_TYPE = 0
CLASSIFICATION_TYPE = U
NORAD_CAT_ID   = 87293
ELEMENT_SET_NO = 999
REV_AT_EPOCH   = 60965
BSTAR          = .34053E-2
MEAN_MOTION_DOT = .16974E-3
MEAN_MOTION_DDOT = 0

CCSDS_OMM_VERS = 2.0
CREATION_DATE  = 
ORIGINATOR     = 

OBJECT_NAME    = UNKNOWN
OBJECT_ID      = 
CENTER_NAME    = EARTH
REF_FRAME      = TEME
TIME_SYSTEM    = UTC
MEAN_ELEMENT_THEORY = SGP/SGP4

EPOCH          = 2025-11-11T09:43:06.444480
MEAN_MOTION    = 13.99272348
ECCENTRICITY   = .0030257
INCLINATION    = 100.0845
RA_OF_ASC_NODE = 294.7286
ARG_OF_PERICENTER = 14.6882
MEAN_ANOMALY   = 345.5150

EPHEMERIS_TYPE = 0
CLASSIFICATION_TYPE = U
NORAD_CAT_ID   = 87300
ELEMENT_SET_NO = 999
REV_AT_EPOCH   = 60873
BSTAR          = .19869E-2
MEAN_MOTION_DOT = .2845E-4
MEAN_MOTION_DDOT = 0

CCSDS_OMM_VERS = 2.0
CREATION_DATE  = 
ORIGINATOR     = 

OBJECT_NAME    = UNKNOWN
OBJECT_ID      = 
CENTER_NAME    = EARTH
REF_FRAME      = TEME
TIME_SYSTEM    = UTC
MEAN_ELEMENT_THEORY = SGP/SGP4

EPOCH          = 2025-11-11T22:15:34.725600
MEAN_MOTION    = 14.75245741
ECCENTRICITY   = .0018644
INCLINATION    = 74.0210
RA_OF_ASC_NODE = 21.2638
ARG_OF_PERICENTER = 353.6679
MEAN_ANOMALY   = 6.4256

EPHEMERIS_TYPE = 0
CLASSIFICATION_TYPE = U
NORAD_CAT_ID   = 87304
ELEMENT_SET_NO = 999
REV_AT_EPOCH   = 64193
BSTAR          = .39532E-3
MEAN_MOTION_DOT = .2649E-4
MEAN_MOTION_DDOT = 0

